*******************************************************************************
Ephemeris / WWW_USER Fri Mar  7 11:17:04 2025 Pasadena, USA      / Horizons    
*******************************************************************************
Target body name: (2018 VC)                       {source: JPL#21}
Center body name: Earth (399)                     {source: DE441}
Center-site name: Mauna Kea
*******************************************************************************
Start time      : A.D. 2018-Nov-08 03:54:00.0000 UT      
Stop  time      : A.D. 2018-Nov-08 16:17:00.0000 UT      
Step-size       : 1 minutes
*******************************************************************************
Target pole/equ : undefined
Target radii    : undefined                                                    
Center geodetic : 204.5278, 19.8260847, 4.21024   {E-lon(deg),Lat(deg),Alt(km)}
Center cylindric: 204.5278, 6006.35451, 2151.0229 {E-lon(deg),Dxy(km),Dz(km)}
Center pole/equ : ITRF93                          {East-longitude positive}
Center radii    : 6378.137, 6378.137, 6356.752 km {Equator_a, b, pole_c}       
Target primary  : Sun
Vis. interferer : MOON (R_eq= 1737.400) km        {source: DE441}
Rel. light bend : Sun                             {source: DE441}
Rel. lght bnd GM: 1.3271E+11 km^3/s^2                                          
Small-body perts: Yes                             {source: SB441-N16}
Atmos refraction: NO (AIRLESS)
RA format       : HMS
Time format     : CAL 
Calendar mode   : Mixed Julian/Gregorian
RTS-only print  : NO       
EOP file        : eop.250306.p250602                                           
EOP coverage    : DATA-BASED 1962-JAN-20 TO 2025-MAR-06. PREDICTS-> 2025-JUN-01
Units conversion: 1 au= 149597870.700 km, c= 299792.458 km/s, 1 day= 86400.0 s 
Table cut-offs 1: Elevation (-90.0deg=NO ),Airmass (>38.000=NO), Daylight (YES)
Table cut-offs 2: Solar elongation (  0.0,180.0=NO ),Local Hour Angle( 0.0=NO )
Table cut-offs 3: RA/DEC angular rate (     0.0=NO )                           
*******************************************************************************
Initial IAU76/J2000 heliocentric ecliptic osculating elements (au, days, deg.):
  EPOCH=  2458962.5 ! 2020-Apr-23.00 (TDB)         Residual RMS= .087367       
   EC= .1691367762722357   QR= .9358500167919792   TP= 2458809.0997793972      
   OM= 36.58853997425776   W=  304.3228784920618   IN= 3.701146998496158       
  Equivalent ICRF heliocentric cartesian coordinates (au, au/d):
   X=-6.479543737333916E-01  Y= 9.538692942598190E-01  Z= 5.016232001756915E-01
  VX=-1.316843360643849E-02 VY=-5.467047892625660E-03 VZ=-2.149198049185293E-03
Asteroid physical parameters (km, seconds, rotational period in hours):        
   GM= n.a.                RAD= n.a.               ROTPER= n.a.                
   H= 26.34                G= .150                 B-V= n.a.                   
                           ALBEDO= n.a.            STYP= n.a.                  
*******************************************************************************
 Date__(UT)__HR:MN     R.A._________(ICRF)_________DEC
******************************************************
$$SOE
 2018-Nov-08 16:12 C   02 20 40.497016 +34 39 51.42315
 2018-Nov-08 16:13 C   02 20 40.589450 +34 39 51.91404
 2018-Nov-08 16:14 C   02 20 40.682267 +34 39 52.40534
 2018-Nov-08 16:15 C   02 20 40.775466 +34 39 52.89706
 2018-Nov-08 16:16 C   02 20 40.869047 +34 39 53.38920
 2018-Nov-08 16:17 C   02 20 40.963010 +34 39 53.88178
